{
  "type": "FeatureCollection",
  "features": [
    {
      "type": "Feature",
      "properties": {
        "norad_id": 35724,
        "name": "COSMOS 2251 DEB",
        "group": "cosmos-2251-debris",
        "lat": 8.488563901355272,
        "lon": -56.212887421951066,
        "alt_km": 697.2787405233603,
        "timestamp": "2025-12-13T10:41:26.162749+00:00",
        "meta_object_name": "COSMOS 2251 DEB",
        "meta_object_id": "1993-036AQV",
        "meta_epoch": "2025-12-11T07:36:26.462016",
        "meta_mean_motion": 14.58193223,
        "meta_eccentricity": 0.00589289,
        "meta_inclination": 74.0322,
        "meta_ra_of_asc_node": 305.3872,
        "meta_arg_of_pericenter": 99.5025,
        "meta_mean_anomaly": 261.2806,
        "meta_ephemeris_type": 0,
        "meta_classification_type": "U",
        "meta_norad_cat_id": 35724,
        "meta_element_set_no": 999,
        "meta_rev_at_epoch": 87508,
        "meta_bstar": 0.00043935858,
        "meta_mean_motion_dot": 2.046e-05,
        "meta_mean_motion_ddot": 0,
        "tle_line1": "1 35724U 93036AQV 25345.31697294  .00002046  00000+0  43936-3 0  9991",
        "tle_line2": "2 35724  74.0322 305.3872 0058928  99.5025 261.2806 14.58193223875082"
      },
      "geometry": {
        "type": "Point",
        "coordinates": [
          -56.212887421951066,
          8.488563901355272
        ]
      }
    },
    {
      "type": "Feature",
      "properties": {
        "norad_id": 35759,
        "name": "COSMOS 2251 DEB",
        "group": "cosmos-2251-debris",
        "lat": -59.178444945501354,
        "lon": 63.35884001853325,
        "alt_km": 683.2009947865527,
        "timestamp": "2025-12-13T10:41:26.162759+00:00",
        "meta_object_name": "COSMOS 2251 DEB",
        "meta_object_id": "1993-036ARD",
        "meta_epoch": "2025-12-12T22:06:17.325504",
        "meta_mean_motion": 14.64892065,
        "meta_eccentricity": 0.00770642,
        "meta_inclination": 74.0372,
        "meta_ra_of_asc_node": 215.6979,
        "meta_arg_of_pericenter": 333.7707,
        "meta_mean_anomaly": 25.9566,
        "meta_ephemeris_type": 0,
        "meta_classification_type": "U",
        "meta_norad_cat_id": 35759,
        "meta_element_set_no": 999,
        "meta_rev_at_epoch": 66138,
        "meta_bstar": 0.00045171828,
        "meta_mean_motion_dot": 2.49e-05,
        "meta_mean_motion_ddot": 0,
        "tle_line1": "1 35759U 93036ARD 25346.92103386  .00002490  00000+0  45172-3 0  9998",
        "tle_line2": "2 35759  74.0372 215.6979 0077064 333.7707  25.9566 14.64892065661389"
      },
      "geometry": {
        "type": "Point",
        "coordinates": [
          63.35884001853325,
          -59.178444945501354
        ]
      }
    },
    {
      "type": "Feature",
      "properties": {
        "norad_id": 35771,
        "name": "COSMOS 2251 DEB",
        "group": "cosmos-2251-debris",
        "lat": 56.095885067089085,
        "lon": 104.09845182283753,
        "alt_km": 939.1805708822931,
        "timestamp": "2025-12-13T10:41:26.162770+00:00",
        "meta_object_name": "COSMOS 2251 DEB",
        "meta_object_id": "1993-036ARR",
        "meta_epoch": "2025-12-01T22:51:30.250944",
        "meta_mean_motion": 14.12929206,
        "meta_eccentricity": 0.02319336,
        "meta_inclination": 74.1559,
        "meta_ra_of_asc_node": 329.2822,
        "meta_arg_of_pericenter": 270.0805,
        "meta_mean_anomaly": 87.3761,
        "meta_ephemeris_type": 0,
        "meta_classification_type": "U",
        "meta_norad_cat_id": 35771,
        "meta_element_set_no": 999,
        "meta_rev_at_epoch": 82708,
        "meta_bstar": 0.0074414228,
        "meta_mean_motion_dot": 0.00017913,
        "meta_mean_motion_ddot": 0,
        "tle_line1": "1 35771U 93036ARR 25335.95243346  .00017913  00000+0  74414-2 0  9990",
        "tle_line2": "2 35771  74.1559 329.2822 0231933 270.0805  87.3761 14.12929206827080"
      },
      "geometry": {
        "type": "Point",
        "coordinates": [
          104.09845182283753,
          56.095885067089085
        ]
      }
    },
    {
      "type": "Feature",
      "properties": {
        "norad_id": 35773,
        "name": "COSMOS 2251 DEB",
        "group": "cosmos-2251-debris",
        "lat": 55.42811511344118,
        "lon": 134.87592296768162,
        "alt_km": 650.2837959587287,
        "timestamp": "2025-12-13T10:41:26.162780+00:00",
        "meta_object_name": "COSMOS 2251 DEB",
        "meta_object_id": "1993-036ART",
        "meta_epoch": "2025-12-12T09:30:25.729632",
        "meta_mean_motion": 14.62066198,
        "meta_eccentricity": 0.00455671,
        "meta_inclination": 74.0082,
        "meta_ra_of_asc_node": 341.4791,
        "meta_arg_of_pericenter": 141.6526,
        "meta_mean_anomaly": 218.7896,
        "meta_ephemeris_type": 0,
        "meta_classification_type": "U",
        "meta_norad_cat_id": 35773,
        "meta_element_set_no": 999,
        "meta_rev_at_epoch": 86834,
        "meta_bstar": 0.00090074362,
        "meta_mean_motion_dot": 4.563e-05,
        "meta_mean_motion_ddot": 0,
        "tle_line1": "1 35773U 93036ART 25346.39613113  .00004563  00000+0  90074-3 0  9993",
        "tle_line2": "2 35773  74.0082 341.4791 0045567 141.6526 218.7896 14.62066198868342"
      },
      "geometry": {
        "type": "Point",
        "coordinates": [
          134.87592296768162,
          55.42811511344118
        ]
      }
    },
    {
      "type": "Feature",
      "properties": {
        "norad_id": 35777,
        "name": "COSMOS 2251 DEB",
        "group": "cosmos-2251-debris",
        "lat": -17.481135510063147,
        "lon": -43.64930870739077,
        "alt_km": 1295.2062365717857,
        "timestamp": "2025-12-13T10:41:26.162789+00:00",
        "meta_object_name": "COSMOS 2251 DEB",
        "meta_object_id": "1993-036ARX",
        "meta_epoch": "2025-12-11T16:44:43.408032",
        "meta_mean_motion": 13.41302168,
        "meta_eccentricity": 0.04523975,
        "meta_inclination": 73.7703,
        "meta_ra_of_asc_node": 324.405,
        "meta_arg_of_pericenter": 219.3938,
        "meta_mean_anomaly": 322.0409,
        "meta_ephemeris_type": 0,
        "meta_classification_type": "U",
        "meta_norad_cat_id": 35777,
        "meta_element_set_no": 999,
        "meta_rev_at_epoch": 79670,
        "meta_bstar": 0.00059855427,
        "meta_mean_motion_dot": 5.85e-06,
        "meta_mean_motion_ddot": 0,
        "tle_line1": "1 35777U 93036ARX 25345.69772463  .00000585  00000+0  59855-3 0  9995",
        "tle_line2": "2 35777  73.7703 324.4050 0452397 219.3938 322.0409 13.41302168796709"
      },
      "geometry": {
        "type": "Point",
        "coordinates": [
          -43.64930870739077,
          -17.481135510063147
        ]
      }
    },
    {
      "type": "Feature",
      "properties": {
        "norad_id": 35784,
        "name": "COSMOS 2251 DEB",
        "group": "cosmos-2251-debris",
        "lat": 67.5637682391336,
        "lon": -135.5047701858764,
        "alt_km": 730.8731951697546,
        "timestamp": "2025-12-13T10:41:26.162799+00:00",
        "meta_object_name": "COSMOS 2251 DEB",
        "meta_object_id": "1993-036ASE",
        "meta_epoch": "2025-12-11T13:29:37.163616",
        "meta_mean_motion": 14.50036581,
        "meta_eccentricity": 0.00425182,
        "meta_inclination": 74.0367,
        "meta_ra_of_asc_node": 91.9162,
        "meta_arg_of_pericenter": 224.1944,
        "meta_mean_anomaly": 135.5818,
        "meta_ephemeris_type": 0,
        "meta_classification_type": "U",
        "meta_norad_cat_id": 35784,
        "meta_element_set_no": 999,
        "meta_rev_at_epoch": 65689,
        "meta_bstar": 0.00055568841,
        "meta_mean_motion_dot": 2.151e-05,
        "meta_mean_motion_ddot": 0,
        "tle_line1": "1 35784U 93036ASE 25345.56223569  .00002151  00000+0  55569-3 0  9996",
        "tle_line2": "2 35784  74.0367  91.9162 0042518 224.1944 135.5818 14.50036581656898"
      },
      "geometry": {
        "type": "Point",
        "coordinates": [
          -135.5047701858764,
          67.5637682391336
        ]
      }
    },
    {
      "type": "Feature",
      "properties": {
        "norad_id": 35786,
        "name": "COSMOS 2251 DEB",
        "group": "cosmos-2251-debris",
        "lat": 61.05934604556917,
        "lon": 73.6354949618588,
        "alt_km": 673.5552658224642,
        "timestamp": "2025-12-13T10:41:26.162809+00:00",
        "meta_object_name": "COSMOS 2251 DEB",
        "meta_object_id": "1993-036ASG",
        "meta_epoch": "2025-12-11T14:10:39.925632",
        "meta_mean_motion": 14.66207528,
        "meta_eccentricity": 0.00341301,
        "meta_inclination": 74.0141,
        "meta_ra_of_asc_node": 45.9861,
        "meta_arg_of_pericenter": 176.1122,
        "meta_mean_anomaly": 184.032,
        "meta_ephemeris_type": 0,
        "meta_classification_type": "U",
        "meta_norad_cat_id": 35786,
        "meta_element_set_no": 999,
        "meta_rev_at_epoch": 73391,
        "meta_bstar": 0.0016405904,
        "meta_mean_motion_dot": 9.091e-05,
        "meta_mean_motion_ddot": 0,
        "tle_line1": "1 35786U 93036ASG 25345.59073988  .00009091  00000+0  16406-2 0  9995",
        "tle_line2": "2 35786  74.0141  45.9861 0034130 176.1122 184.0320 14.66207528733914"
      },
      "geometry": {
        "type": "Point",
        "coordinates": [
          73.6354949618588,
          61.05934604556917
        ]
      }
    }
  ]
}